      2.10          N: GNSS NAV DATA                        RINEX VERSION / TYPE
fic2rin                                 06/07/2018 00:17:35 PGM / RUN BY / DATE
                                                            END OF HEADER
 3 18  6  6  9 59 44.0 8.418597280979e-05 6.821210263297e-12 0.000000000000e+00
    4.000000000000e+01-5.203125000000e+01 4.488758403376e-09 1.254968057405e+00
   -2.944841980934e-06 1.409196876921e-03 8.845701813698e-06 5.153746955872e+03
    2.951840000000e+05 0.000000000000e+00-1.831380136951e+00 7.450580596924e-09
    9.607573299363e-01 2.084687500000e+02 4.350506288507e-01-7.988189883030e-09
    8.036049019412e-11 1.000000000000e+00 2.004000000000e+03 0.000000000000e+00
    2.400000000000e+00 0.000000000000e+00 2.328306436539e-09 4.000000000000e+01
    2.929560000000e+05 4.000000000000e+00
 3 18  6  6 11 59 44.0 8.423533290625e-05 6.821210263297e-12 0.000000000000e+00
    4.100000000000e+01-6.090625000000e+01 4.348395413837e-09 2.304010098629e+00
   -3.058463335037e-06 1.409240765497e-03 9.130686521530e-06 5.153749771118e+03
    3.023840000000e+05-7.450580596924e-09-1.831437679371e+00-1.117587089539e-08
    9.607579560653e-01 2.002812500000e+02 4.361426723272e-01-7.976403677801e-09
    8.714648714384e-11 1.000000000000e+00 2.004000000000e+03 0.000000000000e+00
    2.400000000000e+00 0.000000000000e+00 2.328306436539e-09 4.100000000000e+01
    2.952060000000e+05 4.000000000000e+00
18 18  6  6 11 59 44.0 1.830980181694e-05 4.661160346586e-12 0.000000000000e+00
    8.000000000000e+00-4.618750000000e+01 4.703410201628e-09 2.913123221949e+00
   -2.320855855942e-06 1.459949498530e-02 4.436820745468e-06 5.153651964188e+03
    3.023840000000e+05 1.098960638046e-07-2.921461912055e+00-2.980232238770e-08
    9.500332685161e-01 2.863125000000e+02 1.309414392422e+00-8.076050685642e-09
    4.500187450871e-11 1.000000000000e+00 2.004000000000e+03 0.000000000000e+00
    2.400000000000e+00 0.000000000000e+00-6.984919309616e-09 8.000000000000e+00
    2.952060000000e+05 4.000000000000e+00
29 18  6  6 11 59 44.0 4.372284747660e-04-6.707523425575e-12 0.000000000000e+00
    2.100000000000e+01 2.975000000000e+01 3.966593795982e-09 1.682313220241e-02
    1.538544893265e-06 8.076875237748e-04 6.075948476791e-06 5.153684642792e+03
    3.023840000000e+05-3.166496753693e-08 2.417763292037e+00 9.872019290924e-08
    9.841110454780e-01 2.744062500000e+02 1.201877910353e+00-7.871042146213e-09
    8.178912113090e-11 1.000000000000e+00 2.004000000000e+03 0.000000000000e+00
    2.400000000000e+00 0.000000000000e+00-1.024454832077e-08 2.100000000000e+01
    2.952060000000e+05 4.000000000000e+00
 1 18  6  6 12  0  0.0-5.386862903833e-05-3.183231456205e-12 0.000000000000e+00
    4.300000000000e+01-4.387500000000e+01 4.249462721465e-09-3.098310753445e+00
   -2.263113856316e-06 7.843956118450e-03 5.159527063370e-06 5.153669351578e+03
    3.024000000000e+05-3.725290298462e-09-2.874122039542e+00-7.450580596924e-09
    9.716477222163e-01 2.861875000000e+02 6.354624957122e-01-7.992118618106e-09
    8.571785620706e-11 1.000000000000e+00 2.004000000000e+03 0.000000000000e+00
    2.400000000000e+00 0.000000000000e+00 5.587935447693e-09 4.300000000000e+01
    2.952060000000e+05 4.000000000000e+00
 2 18  6  6 12  0  0.0 9.380094707012e-05-1.102762325900e-11 0.000000000000e+00
    3.500000000000e+01-4.087500000000e+01 4.608406244332e-09-2.764907827429e+00
   -2.000480890274e-06 1.788789173588e-02 4.651024937630e-06 5.153752681732e+03
    3.024000000000e+05 2.328306436539e-07-2.935432847006e+00-7.450580596924e-08
    9.507232962528e-01 2.825937500000e+02-1.854064672801e+00-7.963903157104e-09
    1.367914121971e-10 1.000000000000e+00 2.004000000000e+03 0.000000000000e+00
    2.400000000000e+00 0.000000000000e+00-2.048909664154e-08 3.500000000000e+01
    2.952060000000e+05 4.000000000000e+00
 6 18  6  6 12  0  0.0 3.981711342931e-04-2.955857780762e-12 0.000000000000e+00
    3.300000000000e+01-3.746875000000e+01 4.310893851747e-09-2.939818935807e+00
   -1.939013600349e-06 1.146897440776e-03 5.077570676804e-06 5.153637537003e+03
    3.024000000000e+05 6.705522537231e-08-2.882445946861e+00-5.774199962616e-08
    9.713639951065e-01 2.898750000000e+02-1.066166658898e+00-8.050335328780e-09
    2.107230631757e-11 1.000000000000e+00 2.004000000000e+03 0.000000000000e+00
    2.400000000000e+00 0.000000000000e+00 4.656612873077e-09 3.300000000000e+01
    2.952060000000e+05 4.000000000000e+00
 5 18  6  6 12  0  0.0-6.621703505516e-06 6.821210263297e-13 0.000000000000e+00
    9.600000000000e+01-4.693750000000e+01 4.686623788121e-09-9.648484988414e-02
   -2.326443791389e-06 5.377708701417e-03 8.527189493179e-06 5.153719825745e+03
    3.024000000000e+05 3.911554813385e-08-1.853408501378e+00 6.891787052155e-08
    9.476609171725e-01 2.084375000000e+02 6.141462242154e-01-8.191412633787e-09
    9.500395729616e-11 1.000000000000e+00 2.004000000000e+03 0.000000000000e+00
    2.400000000000e+00 0.000000000000e+00-1.117587089539e-08 9.600000000000e+01
    2.952060000000e+05 4.000000000000e+00
 4 18  6  6 12  0  0.0 6.736302748322e-05 3.296918293927e-12 0.000000000000e+00
    5.900000000000e+01 2.059375000000e+01 5.448441235161e-09 2.911878691207e-01
    1.257285475731e-06 9.844938642345e-03 8.478760719299e-06 5.153705451965e+03
    3.024000000000e+05-2.421438694000e-08 1.337802389434e+00 8.009374141693e-08
    9.788328472885e-01 2.233750000000e+02 9.291234790480e-01-8.039977754488e-09
   -3.607293115380e-10 1.000000000000e+00 2.004000000000e+03 0.000000000000e+00
    3.400000000000e+00 6.300000000000e+01-1.955777406693e-08 5.900000000000e+01
    2.952060000000e+05 4.000000000000e+00
22 18  6  6 12  0  0.0-4.168297164142e-04-1.261923898710e-11 0.000000000000e+00
    4.600000000000e+01-5.859375000000e+01 5.202359556300e-09-1.607573130559e+00
   -2.758577466011e-06 7.371076964773e-03 8.976086974144e-06 5.153798770905e+03
    3.024000000000e+05 5.029141902924e-08-1.891397043113e+00 1.806765794754e-07
    9.248779459531e-01 1.849375000000e+02-1.532253735558e+00-8.380349075177e-09
    8.857511808063e-11 1.000000000000e+00 2.004000000000e+03 0.000000000000e+00
    2.400000000000e+00 0.000000000000e+00-1.769512891769e-08 4.600000000000e+01
    2.952060000000e+05 4.000000000000e+00
14 18  6  6 12  0  0.0-9.727990254760e-05-2.273736754432e-13 0.000000000000e+00
    3.800000000000e+01 3.509375000000e+01 4.723768192477e-09-1.278183682258e+00
    2.089887857437e-06 9.937788359821e-03 8.294358849525e-06 5.153588705063e+03
    3.024000000000e+05 1.098960638046e-07-7.075182594554e-01 2.533197402954e-07
    9.609624720127e-01 2.190625000000e+02-1.951906232912e+00-8.059264272135e-09
    3.000124967247e-10 1.000000000000e+00 2.004000000000e+03 0.000000000000e+00
    2.400000000000e+00 0.000000000000e+00-9.778887033463e-09 3.800000000000e+01
    2.952060000000e+05 4.000000000000e+00
13 18  6  6 12  0  0.0-9.376462548971e-05 3.410605131648e-13 0.000000000000e+00
    3.100000000000e+01 3.231250000000e+01 4.475900724945e-09-2.283099078846e+00
    1.683831214905e-06 3.346196375787e-03 8.247792720795e-06 5.153660724640e+03
    3.024000000000e+05 1.303851604462e-08-6.655666009605e-01 2.980232238770e-08
    9.684428885621e-01 2.223125000000e+02 1.571019427654e+00-7.901043395886e-09
    2.450102056585e-10 1.000000000000e+00 2.004000000000e+03 0.000000000000e+00
    2.400000000000e+00 0.000000000000e+00-1.117587089539e-08 3.100000000000e+01
    2.952060000000e+05 4.000000000000e+00
17 18  6  6 12  0  0.0-9.089708328247e-05 3.524291969370e-12 0.000000000000e+00
    2.900000000000e+01 2.356250000000e+01 4.080169955456e-09-1.021075885418e+00
    1.324340701103e-06 1.234324357938e-02 6.716698408127e-06 5.153568990707e+03
    3.024000000000e+05-1.117587089539e-07 2.407150590867e+00 2.346932888031e-07
    9.828195989527e-01 2.641562500000e+02-1.777753647558e+00-8.088194048605e-09
    3.928735076157e-11 1.000000000000e+00 2.004000000000e+03 0.000000000000e+00
    2.400000000000e+00 0.000000000000e+00-1.117587089539e-08 2.900000000000e+01
    2.952060000000e+05 4.000000000000e+00
12 18  6  6 12  0  0.0 3.291121684015e-04-2.387423592154e-12 0.000000000000e+00
    3.700000000000e+01 1.484375000000e+01 3.844445850887e-09 1.910956557731e+00
    5.066394805908e-07 7.191617274657e-03 8.232891559601e-06 5.153584661484e+03
    3.024000000000e+05-1.266598701477e-07 1.372720462152e+00-1.043081283569e-07
    9.863669456168e-01 2.348750000000e+02 9.895263468871e-01-7.698177802862e-09
   -2.735828243942e-10 1.000000000000e+00 2.004000000000e+03 0.000000000000e+00
    2.400000000000e+00 0.000000000000e+00-1.257285475731e-08 3.700000000000e+01
    2.952060000000e+05 4.000000000000e+00
10 18  6  6 12  0  0.0 1.875055022538e-04 1.023181539495e-12 0.000000000000e+00
    3.200000000000e+01-5.121875000000e+01 4.376968032573e-09 1.083327248265e+00
   -2.717599272728e-06 3.568159183487e-03 9.650364518166e-06 5.153669584274e+03
    3.024000000000e+05-5.960464477539e-08-1.834887741982e+00 6.332993507385e-08
    9.608501681806e-01 1.933437500000e+02-2.744287201274e+00-7.936759169305e-09
    2.357241045694e-11 1.000000000000e+00 2.004000000000e+03 0.000000000000e+00
    2.400000000000e+00 0.000000000000e+00 1.862645149231e-09 3.200000000000e+01
    2.952060000000e+05 4.000000000000e+00
 8 18  6  6 12  0  0.0-1.038364134729e-04-1.364242052659e-12 0.000000000000e+00
    8.700000000000e+01 3.250000000000e+01 4.213746948045e-09-6.263962935199e-01
    1.706182956696e-06 3.467661445029e-03 6.785616278648e-06 5.153578420639e+03
    3.024000000000e+05 9.313225746155e-09 2.344494336183e+00-1.247972249985e-07
    9.693117185352e-01 2.554687500000e+02-4.198090471433e-01-8.053549748387e-09
    8.857511808063e-11 1.000000000000e+00 2.004000000000e+03 0.000000000000e+00
    2.400000000000e+00 0.000000000000e+00 5.122274160385e-09 8.700000000000e+01
    2.952060000000e+05 4.000000000000e+00
